start=new Date('2021-10-13T00:00:00.000Z').valueOf();
sats=[{"OBJECT_NAME":"STARLINK-2578","LAUNCH_DATE":"2021-05-04","DECAY_DATE":null,"ELEMENT_SET_NO":"999","REF_FRAME":"TEME","GP_ID":"187015488","PERIAPSIS":"551.383","TLE_LINE2":"2 48362  53.0561  24.8300 0001159  99.4450 260.6669 15.04778842 24501","CLASSIFICATION_TYPE":"U","COUNTRY_CODE":"US","MEAN_MOTION":"15.04778842","SEMIMAJOR_AXIS":"6930.322","APOAPSIS":"552.990","RCS_SIZE":"LARGE","PERIOD":"95.695","MEAN_MOTION_DDOT":"0.0000000000000","ECCENTRICITY":"0.00011590","FILE":"3159338","RA_OF_ASC_NODE":"24.8300","MEAN_ELEMENT_THEORY":"SGP4","EPHEMERIS_TYPE":"0","MEAN_MOTION_DOT":"0.00001040","TLE_LINE1":"1 48362U 21038K   21285.59836882  .00001040  00000-0  92327-4 0  9996","BSTAR":"0.00009232700000","EPOCH":"2021-10-12T14:21:39.066048","TIME_SYSTEM":"UTC","ARG_OF_PERICENTER":"99.4450","CENTER_NAME":"EARTH","INCLINATION":"53.0561","OBJECT_ID":"2021-038K","SITE":"AFETR","REV_AT_EPOCH":"2450","MEAN_ANOMALY":"260.6669","NORAD_CAT_ID":"48362","OBJECT_TYPE":"PAYLOAD"},{"ELEMENT_SET_NO":"999","DECAY_DATE":null,"LAUNCH_DATE":"2021-05-04","OBJECT_NAME":"STARLINK-2626","COUNTRY_CODE":"US","TLE_LINE2":"2 48363  53.0571  20.2209 0001206 100.3772 259.7353 15.06403231 24567","PERIAPSIS":"546.368","CLASSIFICATION_TYPE":"U","GP_ID":"187016238","REF_FRAME":"TEME","APOAPSIS":"548.039","SEMIMAJOR_AXIS":"6925.339","MEAN_MOTION":"15.06403231","FILE":"3159338","MEAN_MOTION_DDOT":"0.0000000000000","ECCENTRICITY":"0.00012060","PERIOD":"95.592","RCS_SIZE":"LARGE","TIME_SYSTEM":"UTC","BSTAR":"0.00005305800000","EPOCH":"2021-10-12T13:41:19.034016","MEAN_MOTION_DOT":"0.00000509","TLE_LINE1":"1 48363U 21038L   21285.57035919  .00000509  00000-0  53058-4 0  9994","EPHEMERIS_TYPE":"0","MEAN_ELEMENT_THEORY":"SGP4","RA_OF_ASC_NODE":"20.2209","OBJECT_ID":"2021-038L","INCLINATION":"53.0571","CENTER_NAME":"EARTH","ARG_OF_PERICENTER":"100.3772","REV_AT_EPOCH":"2456","MEAN_ANOMALY":"259.7353","SITE":"AFETR","OBJECT_TYPE":"PAYLOAD","NORAD_CAT_ID":"48363"},{"ELEMENT_SET_NO":"999","DECAY_DATE":null,"LAUNCH_DATE":"2021-05-04","OBJECT_NAME":"STARLINK-2611","COUNTRY_CODE":"US","TLE_LINE2":"2 48364  53.0573  19.9443 0001129  98.2175 261.8942 15.06397320 24571","PERIAPSIS":"546.440","CLASSIFICATION_TYPE":"U","REF_FRAME":"TEME","GP_ID":"187014986","APOAPSIS":"548.004","SEMIMAJOR_AXIS":"6925.357","MEAN_MOTION":"15.06397320","FILE":"3159338","ECCENTRICITY":"0.00011290","MEAN_MOTION_DDOT":"0.0000000000000","PERIOD":"95.592","RCS_SIZE":"LARGE","TIME_SYSTEM":"UTC","BSTAR":"-0.00004305700000","EPOCH":"2021-10-12T15:10:11.790624","TLE_LINE1":"1 48364U 21038M   21285.63208091 -.00000923  00000-0 -43057-4 0  9995","MEAN_MOTION_DOT":"-0.00000923","EPHEMERIS_TYPE":"0","MEAN_ELEMENT_THEORY":"SGP4","RA_OF_ASC_NODE":"19.9443","OBJECT_ID":"2021-038M","INCLINATION":"53.0573","CENTER_NAME":"EARTH","ARG_OF_PERICENTER":"98.2175","MEAN_ANOMALY":"261.8942","REV_AT_EPOCH":"2457","SITE":"AFETR","OBJECT_TYPE":"PAYLOAD","NORAD_CAT_ID":"48364"},{"FILE":"3158851","MEAN_MOTION_DDOT":"0.0000000000000","ECCENTRICITY":"0.00013820","RCS_SIZE":"LARGE","PERIOD":"95.592","APOAPSIS":"548.160","SEMIMAJOR_AXIS":"6925.338","MEAN_MOTION":"15.06403520","COUNTRY_CODE":"US","CLASSIFICATION_TYPE":"U","TLE_LINE2":"2 48365  53.0582  20.3418 0001382 107.0319 253.0821 15.06403520 24568","PERIAPSIS":"546.246","GP_ID":"186983129","REF_FRAME":"TEME","ELEMENT_SET_NO":"999","LAUNCH_DATE":"2021-05-04","DECAY_DATE":null,"OBJECT_NAME":"STARLINK-2608","OBJECT_TYPE":"PAYLOAD","NORAD_CAT_ID":"48365","REV_AT_EPOCH":"2456","MEAN_ANOMALY":"253.0821","SITE":"AFETR","INCLINATION":"53.0582","OBJECT_ID":"2021-038N","CENTER_NAME":"EARTH","ARG_OF_PERICENTER":"107.0319","TIME_SYSTEM":"UTC","EPOCH":"2021-10-12T13:04:10.325280","BSTAR":"0.00010401000000","EPHEMERIS_TYPE":"0","TLE_LINE1":"1 48365U 21038N   21285.54456395  .00001268  00000-0  10401-3 0  9995","MEAN_MOTION_DOT":"0.00001268","RA_OF_ASC_NODE":"20.3418","MEAN_ELEMENT_THEORY":"SGP4"},{"OBJECT_ID":"2021-038P","INCLINATION":"53.0572","CENTER_NAME":"EARTH","ARG_OF_PERICENTER":"90.3698","TIME_SYSTEM":"UTC","BSTAR":"-0.00000923700000","EPOCH":"2021-10-12T12:46:15.000384","MEAN_MOTION_DOT":"-0.00000419","TLE_LINE1":"1 48366U 21038P   21285.53211806 -.00000419  00000-0 -92370-5 0  9997","EPHEMERIS_TYPE":"0","MEAN_ELEMENT_THEORY":"SGP4","RA_OF_ASC_NODE":"15.3982","OBJECT_TYPE":"PAYLOAD","NORAD_CAT_ID":"48366","MEAN_ANOMALY":"269.7458","REV_AT_EPOCH":"2521","SITE":"AFETR","COUNTRY_CODE":"US","TLE_LINE2":"2 48366  53.0572  15.3982 0001454  90.3698 269.7458 15.06395289 25217","CLASSIFICATION_TYPE":"U","PERIAPSIS":"546.221","REF_FRAME":"TEME","GP_ID":"186987639","ELEMENT_SET_NO":"999","DECAY_DATE":null,"LAUNCH_DATE":"2021-05-04","OBJECT_NAME":"STARLINK-2631","FILE":"3159056","MEAN_MOTION_DDOT":"0.0000000000000","ECCENTRICITY":"0.00014540","PERIOD":"95.592","RCS_SIZE":"LARGE","APOAPSIS":"548.235","SEMIMAJOR_AXIS":"6925.363","MEAN_MOTION":"15.06395289"},{"TIME_SYSTEM":"UTC","EPOCH":"2021-10-12T12:40:56.431488","BSTAR":"0.00054337000000","EPHEMERIS_TYPE":"0","TLE_LINE1":"1 48367U 21038Q   21285.52843092  .00007824  00000-0  54337-3 0  9999","MEAN_MOTION_DOT":"0.00007824","RA_OF_ASC_NODE":"15.4171","MEAN_ELEMENT_THEORY":"SGP4","INCLINATION":"53.0571","OBJECT_ID":"2021-038Q","CENTER_NAME":"EARTH","ARG_OF_PERICENTER":"100.1657","REV_AT_EPOCH":"2462","MEAN_ANOMALY":"259.9475","SITE":"AFETR","OBJECT_TYPE":"PAYLOAD","NORAD_CAT_ID":"48367","ELEMENT_SET_NO":"999","LAUNCH_DATE":"2021-05-04","DECAY_DATE":null,"OBJECT_NAME":"STARLINK-2643","COUNTRY_CODE":"US","CLASSIFICATION_TYPE":"U","TLE_LINE2":"2 48367  53.0571  15.4171 0001267 100.1657 259.9475 15.06413296 24628","PERIAPSIS":"546.295","GP_ID":"186982127","REF_FRAME":"TEME","APOAPSIS":"548.050","MEAN_MOTION":"15.06413296","SEMIMAJOR_AXIS":"6925.308","FILE":"3158851","ECCENTRICITY":"0.00012670","MEAN_MOTION_DDOT":"0.0000000000000","RCS_SIZE":"LARGE","PERIOD":"95.591"},{"MEAN_MOTION_DOT":"-0.00000223","TLE_LINE1":"1 48368U 21038R   21285.54591952 -.00000223  00000-0  39166-5 0  9999","EPHEMERIS_TYPE":"0","MEAN_ELEMENT_THEORY":"SGP4","RA_OF_ASC_NODE":"15.3322","TIME_SYSTEM":"UTC","EPOCH":"2021-10-12T13:06:07.446528","BSTAR":"0.00000391660000","ARG_OF_PERICENTER":"101.9956","OBJECT_ID":"2021-038R","INCLINATION":"53.0562","CENTER_NAME":"EARTH","REV_AT_EPOCH":"2522","MEAN_ANOMALY":"258.1163","SITE":"AFETR","OBJECT_TYPE":"PAYLOAD","NORAD_CAT_ID":"48368","DECAY_DATE":null,"LAUNCH_DATE":"2021-05-04","OBJECT_NAME":"STARLINK-2623","ELEMENT_SET_NO":"999","CLASSIFICATION_TYPE":"U","TLE_LINE2":"2 48368  53.0562  15.3322 0001153 101.9956 258.1163 15.06396008 25224","PERIAPSIS":"546.427","REF_FRAME":"TEME","GP_ID":"186984902","COUNTRY_CODE":"US","MEAN_MOTION":"15.06396008","SEMIMAJOR_AXIS":"6925.361","APOAPSIS":"548.024","MEAN_MOTION_DDOT":"0.0000000000000","ECCENTRICITY":"0.00011530","PERIOD":"95.592","RCS_SIZE":"LARGE","FILE":"3158949"},{"FILE":"3158851","PERIOD":"95.592","RCS_SIZE":"LARGE","ECCENTRICITY":"0.00012280","MEAN_MOTION_DDOT":"0.0000000000000","APOAPSIS":"548.045","MEAN_MOTION":"15.06406037","SEMIMAJOR_AXIS":"6925.330","COUNTRY_CODE":"US","REF_FRAME":"TEME","GP_ID":"186983684","TLE_LINE2":"2 48369  53.0552  15.4373 0001228  92.7119 267.4010 15.06406037 24623","CLASSIFICATION_TYPE":"U","PERIAPSIS":"546.345","ELEMENT_SET_NO":"999","OBJECT_NAME":"STARLINK-2641","DECAY_DATE":null,"LAUNCH_DATE":"2021-05-04","NORAD_CAT_ID":"48369","OBJECT_TYPE":"PAYLOAD","SITE":"AFETR","MEAN_ANOMALY":"267.4010","REV_AT_EPOCH":"2462","CENTER_NAME":"EARTH","OBJECT_ID":"2021-038S","INCLINATION":"53.0552","ARG_OF_PERICENTER":"92.7119","BSTAR":"0.00008821800000","EPOCH":"2021-10-12T12:35:37.748544","TIME_SYSTEM":"UTC","MEAN_ELEMENT_THEORY":"SGP4","RA_OF_ASC_NODE":"15.4373","MEAN_MOTION_DOT":"0.00001033","TLE_LINE1":"1 48369U 21038S   21285.52474246  .00001033  00000-0  88218-4 0  9994","EPHEMERIS_TYPE":"0"},{"ECCENTRICITY":"0.00007190","MEAN_MOTION_DDOT":"0.0000000000000","RCS_SIZE":"LARGE","PERIOD":"95.591","FILE":"3159068","MEAN_MOTION":"15.06415281","SEMIMAJOR_AXIS":"6925.302","APOAPSIS":"547.665","CLASSIFICATION_TYPE":"U","TLE_LINE2":"2 48370  53.0558  15.4462 0000719 100.1705 259.9366 15.06415281 25216","PERIAPSIS":"546.669","REF_FRAME":"TEME","GP_ID":"186987745","COUNTRY_CODE":"US","LAUNCH_DATE":"2021-05-04","DECAY_DATE":null,"OBJECT_NAME":"STARLINK-2621","ELEMENT_SET_NO":"999","OBJECT_TYPE":"PAYLOAD","NORAD_CAT_ID":"48370","REV_AT_EPOCH":"2521","MEAN_ANOMALY":"259.9366","SITE":"AFETR","ARG_OF_PERICENTER":"100.1705","INCLINATION":"53.0558","OBJECT_ID":"2021-038T","CENTER_NAME":"EARTH","EPHEMERIS_TYPE":"0","MEAN_MOTION_DOT":"0.00001744","TLE_LINE1":"1 48370U 21038T   21285.52106279  .00001744  00000-0  13589-3 0  9991","RA_OF_ASC_NODE":"15.4462","MEAN_ELEMENT_THEORY":"SGP4","TIME_SYSTEM":"UTC","BSTAR":"0.00013589000000","EPOCH":"2021-10-12T12:30:19.825056"},{"ARG_OF_PERICENTER":"97.6722","INCLINATION":"53.0567","OBJECT_ID":"2021-038U","CENTER_NAME":"EARTH","EPHEMERIS_TYPE":"0","TLE_LINE1":"1 48371U 21038U   21285.58372722  .00002392  00000-0  17936-3 0  9996","MEAN_MOTION_DOT":"0.00002392","RA_OF_ASC_NODE":"15.1682","MEAN_ELEMENT_THEORY":"SGP4","TIME_SYSTEM":"UTC","EPOCH":"2021-10-12T14:00:34.031808","BSTAR":"0.00017936000000","OBJECT_TYPE":"PAYLOAD","NORAD_CAT_ID":"48371","MEAN_ANOMALY":"262.4406","REV_AT_EPOCH":"2463","SITE":"AFETR","TLE_LINE2":"2 48371  53.0567  15.1682 0001230  97.6722 262.4406 15.06405813 24635","CLASSIFICATION_TYPE":"U","PERIAPSIS":"546.344","REF_FRAME":"TEME","GP_ID":"187016455","COUNTRY_CODE":"US","LAUNCH_DATE":"2021-05-04","DECAY_DATE":null,"OBJECT_NAME":"STARLINK-2589","ELEMENT_SET_NO":"999","MEAN_MOTION_DDOT":"0.0000000000000","ECCENTRICITY":"0.00012300","RCS_SIZE":"LARGE","PERIOD":"95.592","FILE":"3159338","SEMIMAJOR_AXIS":"6925.331","MEAN_MOTION":"15.06405813","APOAPSIS":"548.048"}];
